[{"OBJECT_NAME":"STARLINK-33585","OBJECT_ID":"2025-015AA","EPOCH":"2026-03-09T22:24:34.887168","MEAN_MOTION":15.3023146,"ECCENTRICITY":8.832e-5,"INCLINATION":53.1586,"RA_OF_ASC_NODE":320.9564,"ARG_OF_PERICENTER":96.1926,"MEAN_ANOMALY":263.9176,"EPHEMERIS_TYPE":0,"CLASSIFICATION_TYPE":"U","NORAD_CAT_ID":62782,"ELEMENT_SET_NO":999,"REV_AT_EPOCH":6424,"BSTAR":0.0016125393,"MEAN_MOTION_DOT":0.00047754,"MEAN_MOTION_DDOT":0},{"OBJECT_NAME":"FREGAT DEB","OBJECT_ID":"2011-037AS","EPOCH":"2026-03-06T16:28:07.273920","MEAN_MOTION":11.74448638,"ECCENTRICITY":0.16797662,"INCLINATION":51.4624,"RA_OF_ASC_NODE":199.6391,"ARG_OF_PERICENTER":296.1327,"MEAN_ANOMALY":47.6346,"EPHEMERIS_TYPE":0,"CLASSIFICATION_TYPE":"U","NORAD_CAT_ID":45650,"ELEMENT_SET_NO":999,"REV_AT_EPOCH":24313,"BSTAR":0.0011639207,"MEAN_MOTION_DOT":6.107e-5,"MEAN_MOTION_DDOT":0}]
